IXPE                    
1 49954U 21121A   23314.79651279  .00005926  00000+0  45101-3 0  9992
2 49954   0.2292 217.9617 0010248 268.6826 233.4496 14.95437236104970
